06947   14.30  0.15 K20CH 226.84765  351.77587  213.17183    3.87803  0.0630260  0.26534289   2.3984523  0 MPC xxxxx  2100  26 1955-2021 0.48 M-v 3Ek Pan        0000   (6947) Andrewdavis        20210313
06948   14.50  0.15 K20CH 302.33541   90.86301   26.37435    2.58384  0.1598440  0.26594271   2.3948445  0 MPC xxxxx  2008  22 1950-2021 0.42 M-v 3Ek Pan        0000   (6948) Gounelle           20210210
06949   13.72  0.15 K20CH 258.19904  112.40717  144.65069   13.22971  0.1623520  0.27125670   2.3634644  0 MPC xxxxx  2125  22 1982-2021 0.47 M-v 3Ek Pan        0007   (6949) Zissell            20210320
06950   12.91  0.15 K20CH 309.76196  112.96654   88.42360   14.21936  0.0973898  0.23632766   2.5909539  0 MPC xxxxx  2538  23 1977-2021 0.41 M-v 3Ek Pan        0000   (6950) Simonek            20210317
06951   13.07  0.15 K20CH 273.18446  109.76739   42.46124    1.07964  0.1002515  0.18538246   3.0461897  0 MPC xxxxx  2584  24 1985-2021 0.46 M-v 3Ek Pan        0000   (6951) 1985 DW1           20210307
06952   13.06  0.15 K20CH 325.20855   69.20565  207.56328    7.47768  0.2635921  0.19893926   2.9061791  0 MPC xxxxx  1731  26 1982-2021 0.47 M-v 3Ek Pan        0000   (6952) Niccolo            20210117
06953   12.81  0.15 K20CH 112.67519  131.87888  157.31789    1.74779  0.1753715  0.17899300   3.1182579  0 MPC xxxxx  2786  29 1951-2021 0.43 M-v 3Ek Pan        0000   (6953) Davepierce         20210313
06954   14.28  0.15 K20CH 174.74368  217.84327   60.66423    3.13792  0.1371229  0.30543118   2.1837042  0 MPC xxxxx  2234  23 1981-2021 0.45 M-v 3Ek Pan        0000   (6954) Potemkin           20210311
06955   12.50  0.15 K20CH  44.12215  320.53899   31.54633    0.94400  0.1634490  0.17922431   3.1155742  0 MPC xxxxx  2736  27 1976-2021 0.49 M-v 3Ek Pan        0000   (6955) Ekaterina          20210310
06956   13.92  0.15 K20CH 259.12011  213.86178  243.82666    5.46491  0.0924801  0.25814083   2.4428581  0 MPC xxxxx  2256  22 1988-2021 0.42 M-v 3Ek Pan        0000   (6956) Holbach            20210119
06957   13.60  0.15 K20CH  18.85227   19.40023  206.86946    1.20821  0.0835387  0.24473349   2.5312815  0 MPC xxxxx  2764  22 1976-2020 0.46 M-v 3Ek Pan        0000   (6957) 1988 HA            20200717
06958   13.05  0.15 K20CH 115.86107   92.76102  205.87084    9.14915  0.0932661  0.18749216   3.0232958  0 MPC xxxxx  2356  26 1955-2021 0.42 M-v 3Ek Pan        0000   (6958) 1988 TX1           20210313
06959   12.25  0.15 K20CH 251.14390  331.51639  357.08730   13.50529  0.1134238  0.20035530   2.8924697  0 MPC xxxxx  2382  27 1953-2021 0.43 M-v 3Ek Pan        0000   (6959) Mikkelkocha        20210318
06960   12.62  0.15 K20CH  38.34299  275.91015   25.92143    1.39717  0.1440641  0.17276969   3.1926968  0 MPC xxxxx  2839  26 1981-2021 0.45 M-v 3Ek Pan        0000   (6960) 1989 AL5           20210206
06961   13.41  0.15 K20CH 355.27860  356.28132  224.78216    4.75908  0.1908979  0.27915233   2.3186857  0 MPC xxxxx  2708  24 1971-2021 0.50 M-v 3Ek Pan        0000   (6961) Ashitaka           20210226
06962   14.46  0.15 K20CH 260.16404   70.96491  278.84031    6.72432  0.1488213  0.28534870   2.2849960  0 MPC xxxxx  1540  20 1990-2020 0.53 M-v 3Ek Pan        0000   (6962) Summerscience      20200523
06963   13.76  0.15 K20CH   1.96072   17.43523  292.63710    4.38555  0.1900473  0.29179185   2.2512339  0 MPC xxxxx  2634  26 1970-2020 0.46 M-v 3Ek Pan        0000   (6963) 1990 OQ3           20201003
06964   13.77  0.15 K20CH 119.03343  181.07069  192.49491    5.42503  0.1752472  0.27100652   2.3649187  0 MPC xxxxx  2427  24 1950-2021 0.47 M-v 3Ek Pan        0000   (6964) Kunihiko           20210315
06965   13.59  0.15 K20CH  73.78741  105.59050  130.48644    6.14368  0.0123489  0.25199319   2.4824291  0 MPC xxxxx  2404  24 1954-2020 0.45 M-v 3Ek Pan        0000   (6965) Niyodogawa         20201011
06966   14.72  0.15 K20CH 217.75157  248.11835  328.94973    2.91202  0.1066733  0.31001519   2.1621247  0 MPC xxxxx  1984  23 1987-2021 0.49 M-v 3Ek Pan        0000   (6966) Vietoris           20210216
06967   14.05  0.15 K20CH 216.31193   19.76189   53.26250    4.48892  0.1399542  0.29223354   2.2489649  0 MPC xxxxx  2164  24 1954-2020 0.49 M-v 3Ek Pan        0000   (6967) 1991 VJ3           20200822
06968   14.04  0.15 K20CH 173.20206   62.01463   53.27285    1.83801  0.0763497  0.29181373   2.2511213  0 MPC xxxxx  2605  22 1954-2020 0.49 M-v 3Ek Pan        0000   (6968) 1991 VX3           20200907
06969   13.47  0.15 K20CH 288.17697  306.85713  148.62490    7.11152  0.0314988  0.30242296   2.1981612  0 MPC xxxxx  3070  23 1974-2021 0.41 M-v 3Ek Pan        0000   (6969) Santaro            20210307
06970   13.55  0.15 K20CH  33.24228  343.14344  111.68376    6.73061  0.0627574  0.27406263   2.3473049  0 MPC xxxxx  2332  23 1954-2021 0.44 M-v 3Ek Pan        0000   (6970) Saigusa            20210318
06971   13.19  0.15 K20CH 121.62735  327.16611   67.90110    3.05610  0.0726480  0.20655484   2.8342999  0 MPC xxxxx  2602  24 1976-2021 0.48 M-v 3Ek Pan        0000   (6971) Omogokei           20210317
06972   13.06  0.15 K20CH  48.18393  284.25643  213.75625    6.35091  0.1288379  0.23953422   2.5677791  0 MPC xxxxx  2371  24 1938-2021 0.46 M-v 3Ek Pan        0000   (6972) Helvetius          20210306
06973   14.14  0.15 K20CH 211.61343   91.17034  144.09720    2.92359  0.1527754  0.22778062   2.6553689  0 MPC xxxxx  1804  24 1976-2021 0.49 M-v 3Ek Pan        0000   (6973) Karajan            20210212
06974   12.06  0.15 K20CH 203.83333  202.61333  165.99769   15.79738  0.1419957  0.23523573   2.5989656  0 MPC xxxxx  2915  23 1941-2021 0.40 M-v 3Ek Pan        0000   (6974) Solti              20210315
06975   12.41  0.15 K20CH 316.72070  335.95402  322.10953    4.86330  0.2899655  0.20313779   2.8659959  0 MPC xxxxx  2185  26 1949-2021 0.45 M-v 3Ek Pan        0000   (6975) Hiroaki            20210212
06976   13.16  0.15 K20CH 177.07300  251.47486   91.43402    8.25153  0.1686975  0.27648339   2.3335835  0 MPC xxxxx  2497  23 1986-2021 0.45 M-v 3Ek Pan        0000   (6976) Kanatsu            20210319
06977   14.10  0.15 K20CH  27.65412  162.69573  129.01571    3.41834  0.1444075  0.28994388   2.2607893  0 MPC xxxxx  2631  24 1979-2020 0.48 M-v 3Ek Pan        0000   (6977) Jaucourt           20201110
06978   13.44  0.15 K20CH 289.12069  301.60559  339.19035    7.46473  0.1715118  0.24013723   2.5634787  0 MPC xxxxx  2252  23 1955-2021 0.52 M-v 3Ek Pan        0000   (6978) Hironaka           20210316
06979   12.45  0.15 K20CH 122.28460  339.14701  359.18956   14.87994  0.2217850  0.22789762   2.6544600  0 MPC xxxxx  2862  21 1952-2021 0.42 M-v 3Ek Pan        0000   (6979) Shigefumi          20210314
06980   12.49  0.15 K20CH 309.96301  211.58316   97.45813    3.29130  0.0473909  0.20664327   2.8334913  0 MPC xxxxx  2581  25 1979-2021 0.41 M-v 3Ek Pan        0000   (6980) Kyusakamoto        20210303
06981   13.08  0.15 K20CH 172.87047  253.90452   22.08193   13.31822  0.1566625  0.22561072   2.6723678  0 MPC xxxxx  2530  22 1974-2021 0.46 M-v 3Ek Pan        0000   (6981) Chirman            20210319
06982   12.85  0.15 K20CH 137.81778  123.62479  204.71298   12.53762  0.1824244  0.22932323   2.6434474  0 MPC xxxxx  2671  26 1933-2021 0.43 M-v 3Ek Pan        0000   (6982) Cesarchavez        20210315
06983   12.35  0.15 K20CH 349.57881  228.13017  110.08210    7.78653  0.1245063  0.17071084   3.2183157  0 MPC xxxxx  2202  22 1989-2020 0.45 M-v 3Ek Pan        0000   (6983) Komatsusakyo       20201222
06984   10.78  0.15 K20CH 142.99443  248.07151  206.19801   16.79596  0.1871298  0.12445702   3.9730417  0 MPC xxxxx  2512  28 1953-2021 0.41 M-v 3Ek Pan        0008   (6984) Lewiscarroll       20210319
06985   13.68  0.15 K20CH 326.94807   15.76238   51.16971    6.68791  0.0925768  0.26266047   2.4147541  0 MPC xxxxx  2451  20 1990-2021 0.40 M-v 3Ek Pan        0000   (6985) 1994 UF2           20210306
06986   13.74  0.15 K20CH  22.96696  305.78599  162.99552    2.33021  0.0629898  0.19654456   2.9297374  0 MPC xxxxx  2445  24 1989-2021 0.50 M-v 3Ek Pan        0000   (6986) Asamayama          20210318
06987   13.65  0.15 K20CH  51.18093  327.20461  264.37727    2.96787  0.0462048  0.21131378   2.7915849  0 MPC xxxxx  2059  21 1991-2020 0.47 M-v 3Ek Pan        0000   (6987) Onioshidashi       20200905
06988   13.65  0.15 K20CH 120.57884  335.08794  219.95988    3.20238  0.0332706  0.25289045   2.4765538  0 MPC xxxxx  2301  23 1978-2020 0.45 M-v 3Ek Pan        0000   (6988) 1994 WE3           20200923
06989   12.55  0.15 K20CH  17.05546  135.19686  292.50633    9.40080  0.0975809  0.18887864   3.0084824  0 MPC xxxxx  2283  23 1981-2021 0.47 M-v 3Ek Pan        0000   (6989) Hoshinosato        20210318
06990   12.98  0.15 K20CH 211.48914    7.00629  116.39735    2.89533  0.1254525  0.17623884   3.1506606  0 MPO593209  2017  26 1949-2020 0.45 M-v 3Ek Pan        0000   (6990) Toya               20201109
06991   12.87  0.15 K20CH  91.03446  229.17631  131.55060    5.76171  0.2029306  0.26476787   2.4019236  0 MPC xxxxx  2654  22 1965-2021 0.43 M-v 3Ek Pan        0000   (6991) Chichibu           20210318
06992   12.20  0.15 K20CH 172.67822  185.10559  126.26935   10.47930  0.0672464  0.18842584   3.0133003  0 MPC xxxxx  2662  26 1976-2021 0.40 M-v 3Ek Pan        0000   (6992) Minano-machi       20210318
06993   12.39  0.15 K20CH 323.58718  292.77714  128.09281    2.40021  0.0814632  0.17993920   3.1073167  0 MPC xxxxx  2909  27 1954-2021 0.48 M-v 3Ek Pan        0000   (6993) 1995 BJ4           20210212
06994   13.07  0.15 K20CH 273.13339  157.71835   12.53001    0.77447  0.0277957  0.18486156   3.0519095  0 MPC xxxxx  2315  27 1950-2021 0.48 M-v 3Ek Pan        0000   (6994) 1995 BV4           20210314
06995   13.24  0.15 K20CH 339.11825  187.70992   57.32971    4.50236  0.1766809  0.24476890   2.5310374  0 MPC xxxxx  2772  23 1978-2021 0.47 M-v 3Ek Pan        0000   (6995) Minoyama           20210212
